{"type": "FeatureCollection", "features": [{"type": "Feature", "properties": {"norad_id": 25590, "name": "COSMOS 2361", "group": "musson", "lat": 8.036394115208584, "lon": -14.48144938674343, "alt_km": 993.937543258161, "timestamp": "2025-12-12T03:50:52.686926+00:00", "meta": {"OBJECT_NAME": "COSMOS 2361", "OBJECT_ID": "1998-076A", "EPOCH": "2025-12-11T12:39:02.255616", "MEAN_MOTION": 13.73217339, "ECCENTRICITY": 0.00300523, "INCLINATION": 82.9339, "RA_OF_ASC_NODE": 344.9833, "ARG_OF_PERICENTER": 269.1239, "MEAN_ANOMALY": 210.1216, "EPHEMERIS_TYPE": 0, "CLASSIFICATION_TYPE": "U", "NORAD_CAT_ID": 25590, "ELEMENT_SET_NO": 999, "REV_AT_EPOCH": 35094, "BSTAR": 9.3804231e-05, "MEAN_MOTION_DOT": 1.02e-06, "MEAN_MOTION_DDOT": 0}, "tle": {"line1": "1 25590U 98076A   25345.52710944  .00000102  00000+0  93804-4 0  9992", "line2": "2 25590  82.9339 344.9833 0030052 269.1239 210.1216 13.73217339350946"}}, "geometry": {"type": "Point", "coordinates": [-14.48144938674343, 8.036394115208584]}}, {"type": "Feature", "properties": {"norad_id": 26818, "name": "COSMOS 2378", "group": "musson", "lat": 76.32094096695047, "lon": 30.824922077071793, "alt_km": 992.2539664550195, "timestamp": "2025-12-12T03:50:52.686948+00:00", "meta": {"OBJECT_NAME": "COSMOS 2378", "OBJECT_ID": "2001-023A", "EPOCH": "2025-12-11T12:16:55.674336", "MEAN_MOTION": 13.74141871, "ECCENTRICITY": 0.00323285, "INCLINATION": 82.9272, "RA_OF_ASC_NODE": 0.6355, "ARG_OF_PERICENTER": 208.3849, "MEAN_ANOMALY": 263.5473, "EPHEMERIS_TYPE": 0, "CLASSIFICATION_TYPE": "U", "NORAD_CAT_ID": 26818, "ELEMENT_SET_NO": 999, "REV_AT_EPOCH": 22906, "BSTAR": 6.6025355e-05, "MEAN_MOTION_DOT": 7.7e-07, "MEAN_MOTION_DDOT": 0}, "tle": {"line1": "1 26818U 01023A   25345.51175549  .00000077  00000+0  66025-4 0  9993", "line2": "2 26818  82.9272   0.6355 0032328 208.3849 263.5473 13.74141871229064"}}, "geometry": {"type": "Point", "coordinates": [30.824922077071793, 76.32094096695047]}}, {"type": "Feature", "properties": {"norad_id": 27436, "name": "COSMOS 2389", "group": "musson", "lat": -75.23912618114439, "lon": -80.59758298197649, "alt_km": 1014.9645685697596, "timestamp": "2025-12-12T03:50:52.686961+00:00", "meta": {"OBJECT_NAME": "COSMOS 2389", "OBJECT_ID": "2002-026A", "EPOCH": "2025-12-11T15:06:17.041824", "MEAN_MOTION": 13.75154443, "ECCENTRICITY": 0.00476538, "INCLINATION": 82.9502, "RA_OF_ASC_NODE": 307.8066, "ARG_OF_PERICENTER": 63.7498, "MEAN_ANOMALY": 112.53, "EPHEMERIS_TYPE": 0, "CLASSIFICATION_TYPE": "U", "NORAD_CAT_ID": 27436, "ELEMENT_SET_NO": 999, "REV_AT_EPOCH": 18133, "BSTAR": 9.2532036e-05, "MEAN_MOTION_DOT": 1.05e-06, "MEAN_MOTION_DDOT": 0}, "tle": {"line1": "1 27436U 02026A   25345.62936391  .00000105  00000+0  92532-4 0  9990", "line2": "2 27436  82.9502 307.8066 0047653  63.7498 112.5300 13.75154443181337"}}, "geometry": {"type": "Point", "coordinates": [-80.59758298197649, -75.23912618114439]}}, {"type": "Feature", "properties": {"norad_id": 27818, "name": "COSMOS 2398", "group": "musson", "lat": -61.36253351861355, "lon": 106.2260472021901, "alt_km": 1013.1722962711683, "timestamp": "2025-12-12T03:50:52.686972+00:00", "meta": {"OBJECT_NAME": "COSMOS 2398", "OBJECT_ID": "2003-023A", "EPOCH": "2025-12-11T13:30:47.555424", "MEAN_MOTION": 13.72385629, "ECCENTRICITY": 0.00325347, "INCLINATION": 82.9484, "RA_OF_ASC_NODE": 273.5653, "ARG_OF_PERICENTER": 114.9453, "MEAN_ANOMALY": 57.6155, "EPHEMERIS_TYPE": 0, "CLASSIFICATION_TYPE": "U", "NORAD_CAT_ID": 27818, "ELEMENT_SET_NO": 999, "REV_AT_EPOCH": 12800, "BSTAR": 9.9500504e-05, "MEAN_MOTION_DOT": 1.07e-06, "MEAN_MOTION_DDOT": 0}, "tle": {"line1": "1 27818U 03023A   25345.56305041  .00000107  00000+0  99501-4 0  9992", "line2": "2 27818  82.9484 273.5653 0032534 114.9453  57.6155 13.72385629128004"}}, "geometry": {"type": "Point", "coordinates": [106.2260472021901, -61.36253351861355]}}, {"type": "Feature", "properties": {"norad_id": 28380, "name": "COSMOS 2407", "group": "musson", "lat": 68.31593818793785, "lon": -128.5750127003685, "alt_km": 941.428483447723, "timestamp": "2025-12-12T03:50:52.686983+00:00", "meta": {"OBJECT_NAME": "COSMOS 2407", "OBJECT_ID": "2004-028A", "EPOCH": "2025-12-11T15:23:19.500288", "MEAN_MOTION": 13.7631346, "ECCENTRICITY": 0.00403699, "INCLINATION": 82.9608, "RA_OF_ASC_NODE": 213.7061, "ARG_OF_PERICENTER": 57.8344, "MEAN_ANOMALY": 320.821, "EPHEMERIS_TYPE": 0, "CLASSIFICATION_TYPE": "U", "NORAD_CAT_ID": 28380, "ELEMENT_SET_NO": 999, "REV_AT_EPOCH": 7408, "BSTAR": 6.3147181e-05, "MEAN_MOTION_DOT": 7.8e-07, "MEAN_MOTION_DDOT": 0}, "tle": {"line1": "1 28380U 04028A   25345.64119792  .00000078  00000+0  63147-4 0  9992", "line2": "2 28380  82.9608 213.7061 0040369  57.8344 320.8210 13.76313460 74088"}}, "geometry": {"type": "Point", "coordinates": [-128.5750127003685, 68.31593818793785]}}, {"type": "Feature", "properties": {"norad_id": 28521, "name": "COSMOS 2414", "group": "musson", "lat": -50.75913927008323, "lon": 176.38281627480023, "alt_km": 972.0535233526234, "timestamp": "2025-12-12T03:50:52.686995+00:00", "meta": {"OBJECT_NAME": "COSMOS 2414", "OBJECT_ID": "2005-002A", "EPOCH": "2025-12-11T12:31:28.562304", "MEAN_MOTION": 13.87902681, "ECCENTRICITY": 0.00408241, "INCLINATION": 82.9492, "RA_OF_ASC_NODE": 185.581, "ARG_OF_PERICENTER": 143.0896, "MEAN_ANOMALY": 217.309, "EPHEMERIS_TYPE": 0, "CLASSIFICATION_TYPE": "U", "NORAD_CAT_ID": 28521, "ELEMENT_SET_NO": 999, "REV_AT_EPOCH": 5778, "BSTAR": 7.1475655e-05, "MEAN_MOTION_DOT": 1.02e-06, "MEAN_MOTION_DDOT": 0}, "tle": {"line1": "1 28521U 05002A   25345.52185836  .00000102  00000+0  71476-4 0  9993", "line2": "2 28521  82.9492 185.5810 0040824 143.0896 217.3090 13.87902681 57785"}}, "geometry": {"type": "Point", "coordinates": [176.38281627480023, -50.75913927008323]}}, {"type": "Feature", "properties": {"norad_id": 32052, "name": "COSMOS 2429", "group": "musson", "lat": 69.12023344617948, "lon": 144.89204181107556, "alt_km": 964.5827528570426, "timestamp": "2025-12-12T03:50:52.687020+00:00", "meta": {"OBJECT_NAME": "COSMOS 2429", "OBJECT_ID": "2007-038A", "EPOCH": "2025-12-11T11:36:13.519584", "MEAN_MOTION": 13.75149217, "ECCENTRICITY": 0.00393035, "INCLINATION": 82.9803, "RA_OF_ASC_NODE": 344.2349, "ARG_OF_PERICENTER": 41.2864, "MEAN_ANOMALY": 319.1252, "EPHEMERIS_TYPE": 0, "CLASSIFICATION_TYPE": "U", "NORAD_CAT_ID": 32052, "ELEMENT_SET_NO": 999, "REV_AT_EPOCH": 91585, "BSTAR": 8.2094915e-05, "MEAN_MOTION_DOT": 9.4e-07, "MEAN_MOTION_DDOT": 0}, "tle": {"line1": "1 32052U 07038A   25345.48348981  .00000094  00000+0  82095-4 0  9994", "line2": "2 32052  82.9803 344.2349 0039303  41.2864 319.1252 13.75149217915857"}}, "geometry": {"type": "Point", "coordinates": [144.89204181107556, 69.12023344617948]}}, {"type": "Feature", "properties": {"norad_id": 35635, "name": "COSMOS 2454", "group": "musson", "lat": -5.642725258755053, "lon": 168.3842274580125, "alt_km": 930.0722450981721, "timestamp": "2025-12-12T03:50:52.687034+00:00", "meta": {"OBJECT_NAME": "COSMOS 2454", "OBJECT_ID": "2009-039A", "EPOCH": "2025-12-11T12:34:42.401568", "MEAN_MOTION": 13.89928401, "ECCENTRICITY": 0.00204682, "INCLINATION": 82.9554, "RA_OF_ASC_NODE": 169.5666, "ARG_OF_PERICENTER": 76.9929, "MEAN_ANOMALY": 335.9587, "EPHEMERIS_TYPE": 0, "CLASSIFICATION_TYPE": "U", "NORAD_CAT_ID": 35635, "ELEMENT_SET_NO": 999, "REV_AT_EPOCH": 83133, "BSTAR": 7.7573029e-05, "MEAN_MOTION_DOT": 1.12e-06, "MEAN_MOTION_DDOT": 0}, "tle": {"line1": "1 35635U 09039A   25345.52410187  .00000112  00000+0  77573-4 0  9996", "line2": "2 35635  82.9554 169.5666 0020468  76.9929 335.9587 13.89928401831331"}}, "geometry": {"type": "Point", "coordinates": [168.3842274580125, -5.642725258755053]}}, {"type": "Feature", "properties": {"norad_id": 36519, "name": "COSMOS 2463", "group": "musson", "lat": 71.81180365917264, "lon": 49.226045867517406, "alt_km": 1007.3392632589193, "timestamp": "2025-12-12T03:50:52.687045+00:00", "meta": {"OBJECT_NAME": "COSMOS 2463", "OBJECT_ID": "2010-017A", "EPOCH": "2025-12-11T14:13:57.760896", "MEAN_MOTION": 13.71649103, "ECCENTRICITY": 0.00348194, "INCLINATION": 82.9614, "RA_OF_ASC_NODE": 27.5553, "ARG_OF_PERICENTER": 291.3603, "MEAN_ANOMALY": 221.8907, "EPHEMERIS_TYPE": 0, "CLASSIFICATION_TYPE": "U", "NORAD_CAT_ID": 36519, "ELEMENT_SET_NO": 999, "REV_AT_EPOCH": 78221, "BSTAR": 6.3765742e-05, "MEAN_MOTION_DOT": 7.2e-07, "MEAN_MOTION_DDOT": 0}, "tle": {"line1": "1 36519U 10017A   25345.59302964  .00000072  00000+0  63766-4 0  9990", "line2": "2 36519  82.9614  27.5553 0034819 291.3603 221.8907 13.71649103782216"}}, "geometry": {"type": "Point", "coordinates": [49.226045867517406, 71.81180365917264]}}]}